{
  "type": "FeatureCollection",
  "features": [
    {
      "type": "Feature",
      "properties": {
        "norad_id": 41890,
        "name": "CYGFM07",
        "group": "weather",
        "lat": -9.775726840283495,
        "lon": 19.95577345983313,
        "alt_km": 422.44116886527536,
        "timestamp": "2025-12-10T18:56:59.705039+00:00",
        "meta_object_name": "CYGFM07",
        "meta_object_id": "2016-078G",
        "meta_epoch": "2025-12-10T11:17:40.555392",
        "meta_mean_motion": 15.49854038,
        "meta_eccentricity": 0.0009645,
        "meta_inclination": 34.9482,
        "meta_ra_of_asc_node": 36.3296,
        "meta_arg_of_pericenter": 196.011,
        "meta_mean_anomaly": 164.0308,
        "meta_ephemeris_type": 0,
        "meta_classification_type": "U",
        "meta_norad_cat_id": 41890,
        "meta_element_set_no": 999,
        "meta_rev_at_epoch": 49960,
        "meta_bstar": 0.00052319,
        "meta_mean_motion_dot": 0.00030212,
        "meta_mean_motion_ddot": 0,
        "tle_line1": "1 41890U 16078G   25344.47060828  .00030212  00000+0  52319-3 0  9997",
        "tle_line2": "2 41890  34.9482  36.3296 0009645 196.0110 164.0308 15.49854038499602"
      },
      "geometry": {
        "type": "Point",
        "coordinates": [
          19.95577345983313,
          -9.775726840283495
        ]
      }
    },
    {
      "type": "Feature",
      "properties": {
        "norad_id": 41891,
        "name": "CYGFM03",
        "group": "weather",
        "lat": 1.0088458992988467,
        "lon": -145.28907609682142,
        "alt_km": 410.1121749530075,
        "timestamp": "2025-12-10T18:56:59.705049+00:00",
        "meta_object_name": "CYGFM03",
        "meta_object_id": "2016-078H",
        "meta_epoch": "2025-12-10T12:00:03.543264",
        "meta_mean_motion": 15.49757356,
        "meta_eccentricity": 0.0008964,
        "meta_inclination": 34.9435,
        "meta_ra_of_asc_node": 38.0538,
        "meta_arg_of_pericenter": 183.3177,
        "meta_mean_anomaly": 176.7487,
        "meta_ephemeris_type": 0,
        "meta_classification_type": "U",
        "meta_norad_cat_id": 41891,
        "meta_element_set_no": 999,
        "meta_rev_at_epoch": 49958,
        "meta_bstar": 0.000522,
        "meta_mean_motion_dot": 0.00030031,
        "meta_mean_motion_ddot": 0,
        "tle_line1": "1 41891U 16078H   25344.50004101  .00030031  00000+0  52200-3 0  9992",
        "tle_line2": "2 41891  34.9435  38.0538 0008964 183.3177 176.7487 15.49757356499584"
      },
      "geometry": {
        "type": "Point",
        "coordinates": [
          -145.28907609682142,
          1.0088458992988467
        ]
      }
    },
    {
      "type": "Feature",
      "properties": {
        "norad_id": 43010,
        "name": "FENGYUN 3D",
        "group": "weather",
        "lat": 52.84788486262126,
        "lon": 143.12841953129958,
        "alt_km": 821.1628612313507,
        "timestamp": "2025-12-10T18:56:59.705060+00:00",
        "meta_object_name": "FENGYUN 3D",
        "meta_object_id": "2017-072A",
        "meta_epoch": "2025-12-10T11:35:30.889824",
        "meta_mean_motion": 14.1968171,
        "meta_eccentricity": 7.95e-05,
        "meta_inclination": 98.9893,
        "meta_ra_of_asc_node": 310.759,
        "meta_arg_of_pericenter": 188.8669,
        "meta_mean_anomaly": 171.2492,
        "meta_ephemeris_type": 0,
        "meta_classification_type": "U",
        "meta_norad_cat_id": 43010,
        "meta_element_set_no": 999,
        "meta_rev_at_epoch": 41821,
        "meta_bstar": 1.5338e-05,
        "meta_mean_motion_dot": -1.4e-07,
        "meta_mean_motion_ddot": 0,
        "tle_line1": "1 43010U 17072A   25344.48299641 -.00000014  00000+0  15338-4 0  9995",
        "tle_line2": "2 43010  98.9893 310.7590 0000795 188.8669 171.2492 14.19681710418218"
      },
      "geometry": {
        "type": "Point",
        "coordinates": [
          143.12841953129958,
          52.84788486262126
        ]
      }
    },
    {
      "type": "Feature",
      "properties": {
        "norad_id": 43013,
        "name": "NOAA 20 (JPSS-1)",
        "group": "weather",
        "lat": -77.02157474531883,
        "lon": -36.9028354227432,
        "alt_km": 835.7927891658046,
        "timestamp": "2025-12-10T18:56:59.705071+00:00",
        "meta_object_name": "NOAA 20 (JPSS-1)",
        "meta_object_id": "2017-073A",
        "meta_epoch": "2025-12-10T10:52:11.767008",
        "meta_mean_motion": 14.19524754,
        "meta_eccentricity": 0.0002149,
        "meta_inclination": 98.7596,
        "meta_ra_of_asc_node": 280.7747,
        "meta_arg_of_pericenter": 90.4862,
        "meta_mean_anomaly": 269.656,
        "meta_ephemeris_type": 0,
        "meta_classification_type": "U",
        "meta_norad_cat_id": 43013,
        "meta_element_set_no": 999,
        "meta_rev_at_epoch": 41769,
        "meta_bstar": 0.00010248,
        "meta_mean_motion_dot": 1.72e-06,
        "meta_mean_motion_ddot": 0,
        "tle_line1": "1 43013U 17073A   25344.45291397  .00000172  00000+0  10248-3 0  9994",
        "tle_line2": "2 43013  98.7596 280.7747 0002149  90.4862 269.6560 14.19524754417690"
      },
      "geometry": {
        "type": "Point",
        "coordinates": [
          -36.9028354227432,
          -77.02157474531883
        ]
      }
    },
    {
      "type": "Feature",
      "properties": {
        "norad_id": 43226,
        "name": "GOES 17",
        "group": "weather",
        "lat": -0.06034254268407345,
        "lon": -85.49049546103285,
        "alt_km": 35771.89614833007,
        "timestamp": "2025-12-10T18:56:59.705084+00:00",
        "meta_object_name": "GOES 17",
        "meta_object_id": "2018-022A",
        "meta_epoch": "2025-12-10T05:31:38.713152",
        "meta_mean_motion": 1.00271633,
        "meta_eccentricity": 0.0003374,
        "meta_inclination": 0.4537,
        "meta_ra_of_asc_node": 89.1429,
        "meta_arg_of_pericenter": 186.9948,
        "meta_mean_anomaly": 156.4873,
        "meta_ephemeris_type": 0,
        "meta_classification_type": "U",
        "meta_norad_cat_id": 43226,
        "meta_element_set_no": 999,
        "meta_rev_at_epoch": 2852,
        "meta_bstar": 0,
        "meta_mean_motion_dot": -1.79e-06,
        "meta_mean_motion_ddot": 0,
        "tle_line1": "1 43226U 18022A   25344.23030918 -.00000179  00000+0  00000+0 0  9990",
        "tle_line2": "2 43226   0.4537  89.1429 0003374 186.9948 156.4873  1.00271633 28527"
      },
      "geometry": {
        "type": "Point",
        "coordinates": [
          -85.49049546103285,
          -0.06034254268407345
        ]
      }
    },
    {
      "type": "Feature",
      "properties": {
        "norad_id": 43491,
        "name": "FENGYUN 2H",
        "group": "weather",
        "lat": 0.10833750039784258,
        "lon": 83.35431383954585,
        "alt_km": 35798.184179887496,
        "timestamp": "2025-12-10T18:56:59.705096+00:00",
        "meta_object_name": "FENGYUN 2H",
        "meta_object_id": "2018-050A",
        "meta_epoch": "2025-12-10T08:41:38.596992",
        "meta_mean_motion": 1.00271007,
        "meta_eccentricity": 0.0002934,
        "meta_inclination": 2.5447,
        "meta_ra_of_asc_node": 81.3483,
        "meta_arg_of_pericenter": 165.0565,
        "meta_mean_anomaly": 42.705,
        "meta_ephemeris_type": 0,
        "meta_classification_type": "U",
        "meta_norad_cat_id": 43491,
        "meta_element_set_no": 999,
        "meta_rev_at_epoch": 2754,
        "meta_bstar": 0,
        "meta_mean_motion_dot": -1.26e-06,
        "meta_mean_motion_ddot": 0,
        "tle_line1": "1 43491U 18050A   25344.36225228 -.00000126  00000+0  00000+0 0  9991",
        "tle_line2": "2 43491   2.5447  81.3483 0002934 165.0565  42.7050  1.00271007 27542"
      },
      "geometry": {
        "type": "Point",
        "coordinates": [
          83.35431383954585,
          0.10833750039784258
        ]
      }
    },
    {
      "type": "Feature",
      "properties": {
        "norad_id": 43689,
        "name": "METOP-C",
        "group": "weather",
        "lat": 46.173709275936496,
        "lon": 33.41698246388214,
        "alt_km": 815.1430430222063,
        "timestamp": "2025-12-10T18:56:59.705108+00:00",
        "meta_object_name": "METOP-C",
        "meta_object_id": "2018-087A",
        "meta_epoch": "2025-12-10T10:17:01.449600",
        "meta_mean_motion": 14.21510464,
        "meta_eccentricity": 0.0001439,
        "meta_inclination": 98.6933,
        "meta_ra_of_asc_node": 42.2335,
        "meta_arg_of_pericenter": 46.6144,
        "meta_mean_anomaly": 313.5153,
        "meta_ephemeris_type": 0,
        "meta_classification_type": "U",
        "meta_norad_cat_id": 43689,
        "meta_element_set_no": 999,
        "meta_rev_at_epoch": 36801,
        "meta_bstar": 0.00011941,
        "meta_mean_motion_dot": 2.18e-06,
        "meta_mean_motion_ddot": 0,
        "tle_line1": "1 43689U 18087A   25344.42848900  .00000218  00000+0  11941-3 0  9996",
        "tle_line2": "2 43689  98.6933  42.2335 0001439  46.6144 313.5153 14.21510464368018"
      },
      "geometry": {
        "type": "Point",
        "coordinates": [
          33.41698246388214,
          46.173709275936496
        ]
      }
    }
  ]
}